{
  "norad_id": 60384,
  "name": "QIANFAN-6",
  "history": [
    {
      "epoch": "2026-04-10T06:38:29.017536Z",
      "apogee_km": 1077.6781780169622,
      "perigee_km": 1059.4482091410691,
      "latitude_deg": -1.875113102328502e-05,
      "longitude_deg": -11.388689635193955,
      "height_km": 1079.7086235072652,
      "semi_major_axis_km": 7446.700193579016,
      "eccentricity": 0.00122403,
      "inclination_deg": 88.9684,
      "raan_deg": 286.7451,
      "arg_perigee_deg": 206.1106,
      "mean_anomaly_deg": 153.9429,
      "mean_motion_rev_day": 13.51005005
    },
    {
      "epoch": "2026-04-11T19:58:09.094080Z",
      "apogee_km": 1077.795130503454,
      "perigee_km": 1059.330293897082,
      "latitude_deg": -2.0129202319344238e-05,
      "longitude_deg": 146.99912348590217,
      "height_km": 1080.1235952256827,
      "semi_major_axis_km": 7446.699712200268,
      "eccentricity": 0.0012398,
      "inclination_deg": 88.9684,
      "raan_deg": 286.5829,
      "arg_perigee_deg": 201.3164,
      "mean_anomaly_deg": 158.7472,
      "mean_motion_rev_day": 13.51005136
    },
    {
      "epoch": "2026-04-13T05:44:31.059168Z",
      "apogee_km": 1077.8933016937954,
      "perigee_km": 1059.2312775380751,
      "latitude_deg": 5.2238886028819504e-05,
      "longitude_deg": -1.125995348291039,
      "height_km": 1080.4439653240952,
      "semi_major_axis_km": 7446.699289615935,
      "eccentricity": 0.00125304,
      "inclination_deg": 88.9684,
      "raan_deg": 286.4363,
      "arg_perigee_deg": 197.0212,
      "mean_anomaly_deg": 163.0521,
      "mean_motion_rev_day": 13.51005251
    },
    {
      "epoch": "2026-04-14T19:04:11.113248Z",
      "apogee_km": 1078.0004585044408,
      "perigee_km": 1059.1230771280261,
      "latitude_deg": -1.4366082759716394e-05,
      "longitude_deg": 157.26191512794355,
      "height_km": 1080.7417083801754,
      "semi_major_axis_km": 7446.698767816233,
      "eccentricity": 0.0012675,
      "inclination_deg": 88.9684,
      "raan_deg": 286.2741,
      "arg_perigee_deg": 192.3161,
      "mean_anomaly_deg": 167.7682,
      "mean_motion_rev_day": 13.51005393
    },
    {
      "epoch": "2026-04-15T19:57:17.807904Z",
      "apogee_km": 1078.0858416654519,
      "perigee_km": 1059.0371868659604,
      "latitude_deg": 6.45343159256599e-05,
      "longitude_deg": 142.85392555635894,
      "height_km": 1080.9196291720002,
      "semi_major_axis_km": 7446.698514265706,
      "eccentricity": 0.001279,
      "inclination_deg": 88.9683,
      "raan_deg": 286.166,
      "arg_perigee_deg": 189.2547,
      "mean_anomaly_deg": 170.8371,
      "mean_motion_rev_day": 13.51005462
    },
    {
      "epoch": "2026-04-16T19:03:45.442080Z",
      "apogee_km": 1078.1689061853021,
      "perigee_km": 1058.9534462114407,
      "latitude_deg": 1.811136872480308e-05,
      "longitude_deg": 155.18938562508205,
      "height_km": 1081.0642266525049,
      "semi_major_axis_km": 7446.698176198372,
      "eccentricity": 0.0012902,
      "inclination_deg": 88.9683,
      "raan_deg": 286.0656,
      "arg_perigee_deg": 186.499,
      "mean_anomaly_deg": 173.5996,
      "mean_motion_rev_day": 13.51005554
    },
    {
      "epoch": "2026-04-17T21:43:31.187712Z",
      "apogee_km": 1078.2551352707542,
      "perigee_km": 1058.8672097766985,
      "latitude_deg": -2.71084976066028e-05,
      "longitude_deg": 114.03798097921023,
      "height_km": 1081.1955210348633,
      "semi_major_axis_km": 7446.6981725237265,
      "eccentricity": 0.00130178,
      "inclination_deg": 88.9683,
      "raan_deg": 285.9498,
      "arg_perigee_deg": 183.2665,
      "mean_anomaly_deg": 176.8403,
      "mean_motion_rev_day": 13.51005555
    },
    {
      "epoch": "2026-04-18T20:49:58.827072Z",
      "apogee_km": 1078.3303302803179,
      "perigee_km": 1058.7916840491189,
      "latitude_deg": 8.180617059367208e-05,
      "longitude_deg": 126.37352043504106,
      "height_km": 1081.2852390813737,
      "semi_major_axis_km": 7446.698007164719,
      "eccentricity": 0.0013119,
      "inclination_deg": 88.9684,
      "raan_deg": 285.8495,
      "arg_perigee_deg": 180.4641,
      "mean_anomaly_deg": 179.6501,
      "mean_motion_rev_day": 13.510056
    },
    {
      "epoch": "2026-04-19T19:56:26.470752Z",
      "apogee_km": 1078.4022652114272,
      "perigee_km": 1058.7191538256266,
      "latitude_deg": 3.018356997861602e-05,
      "longitude_deg": 138.7089378171874,
      "height_km": 1081.3484820915978,
      "semi_major_axis_km": 7446.697709518527,
      "eccentricity": 0.0013216,
      "inclination_deg": 88.9684,
      "raan_deg": 285.7491,
      "arg_perigee_deg": 177.6821,
      "mean_anomaly_deg": 182.4394,
      "mean_motion_rev_day": 13.51005681
    },
    {
      "epoch": "2026-04-20T13:42:56.964960Z",
      "apogee_km": 1078.4594521703066,
      "perigee_km": 1058.6619595174589,
      "latitude_deg": 3.529436854127331e-05,
      "longitude_deg": -128.72532171646284,
      "height_km": 1081.3836303028086,
      "semi_major_axis_km": 7446.697705843882,
      "eccentricity": 0.00132928,
      "inclination_deg": 88.9684,
      "raan_deg": 285.6719,
      "arg_perigee_deg": 175.5897,
      "mean_anomaly_deg": 184.5374,
      "mean_motion_rev_day": 13.51005682
    },
    {
      "epoch": "2026-04-21T19:56:00.809088Z",
      "apogee_km": 1078.5591476809514,
      "perigee_km": 1058.561786303092,
      "latitude_deg": 1.819491915899611e-05,
      "longitude_deg": 136.63645939672287,
      "height_km": 1081.4147550348566,
      "semi_major_axis_km": 7446.697466992022,
      "eccentricity": 0.0013427,
      "inclination_deg": 88.9685,
      "raan_deg": 285.5407,
      "arg_perigee_deg": 172.0351,
      "mean_anomaly_deg": 188.1016,
      "mean_motion_rev_day": 13.51005747
    },
    {
      "epoch": "2026-04-22T19:02:28.451040Z",
      "apogee_km": 1078.6357677133174,
      "perigee_km": 1058.485004586396,
      "latitude_deg": -4.870400598874794e-05,
      "longitude_deg": 148.9718823995619,
      "height_km": 1081.4140333517457,
      "semi_major_axis_km": 7446.697386149856,
      "eccentricity": 0.001353,
      "inclination_deg": 88.9686,
      "raan_deg": 285.4403,
      "arg_perigee_deg": 169.3777,
      "mean_anomaly_deg": 190.7662,
      "mean_motion_rev_day": 13.51005769
    },
    {
      "epoch": "2026-04-23T12:48:58.942656Z",
      "apogee_km": 1078.6901717026822,
      "perigee_km": 1058.4302404819546,
      "latitude_deg": 4.37692628650008e-05,
      "longitude_deg": -118.4623647140931,
      "height_km": 1081.3935928922424,
      "semi_major_axis_km": 7446.697206092318,
      "eccentricity": 0.00136033,
      "inclination_deg": 88.9687,
      "raan_deg": 285.3631,
      "arg_perigee_deg": 167.3331,
      "mean_anomaly_deg": 192.8165,
      "mean_motion_rev_day": 13.51005818
    },
    {
      "epoch": "2026-04-24T20:48:41.821344Z",
      "apogee_km": 1078.7952755966617,
      "perigee_km": 1058.324306118594,
      "latitude_deg": -5.3131693352959136e-05,
      "longitude_deg": 120.15607275712578,
      "height_km": 1081.332777379806,
      "semi_major_axis_km": 7446.696790857627,
      "eccentricity": 0.0013745,
      "inclination_deg": 88.9688,
      "raan_deg": 285.2242,
      "arg_perigee_deg": 163.7137,
      "mean_anomaly_deg": 196.4458,
      "mean_motion_rev_day": 13.51005931
    },
    {
      "epoch": "2026-04-25T19:55:09.446016Z",
      "apogee_km": 1078.8641103878526,
      "perigee_km": 1058.254633508849,
      "latitude_deg": 3.0430634522475732e-05,
      "longitude_deg": 132.49157285553812,
      "height_km": 1081.2527488869343,
      "semi_major_axis_km": 7446.696371948351,
      "eccentricity": 0.0013838,
      "inclination_deg": 88.9689,
      "raan_deg": 285.1238,
      "arg_perigee_deg": 161.0549,
      "mean_anomaly_deg": 199.112,
      "mean_motion_rev_day": 13.51006045
    },
    {
      "epoch": "2026-04-26T22:34:55.158816Z",
      "apogee_km": 1078.9412837274713,
      "perigee_km": 1058.1769163221625,
      "latitude_deg": -2.660369554255132e-05,
      "longitude_deg": 91.34040424925512,
      "height_km": 1081.1335183805872,
      "semi_major_axis_km": 7446.696100024817,
      "eccentricity": 0.0013942,
      "inclination_deg": 88.969,
      "raan_deg": 285.0081,
      "arg_perigee_deg": 158.0441,
      "mean_anomaly_deg": 202.131,
      "mean_motion_rev_day": 13.51006119
    },
    {
      "epoch": "2026-04-27T19:54:43.714368Z",
      "apogee_km": 1079.0026607690188,
      "perigee_km": 1058.1146794144124,
      "latitude_deg": 9.410990089735793e-06,
      "longitude_deg": 130.41939249807504,
      "height_km": 1081.0165570077406,
      "semi_major_axis_km": 7446.695670091715,
      "eccentricity": 0.0014025,
      "inclination_deg": 88.969,
      "raan_deg": 284.9154,
      "arg_perigee_deg": 155.6377,
      "mean_anomaly_deg": 204.544,
      "mean_motion_rev_day": 13.51006236
    },
    {
      "epoch": "2026-04-28T19:01:11.312256Z",
      "apogee_km": 1079.0680518574663,
      "perigee_km": 1058.049009053204,
      "latitude_deg": 2.6672448663168302e-05,
      "longitude_deg": 142.75510418393577,
      "height_km": 1080.873066998225,
      "semi_major_axis_km": 7446.695530455335,
      "eccentricity": 0.0014113,
      "inclination_deg": 88.9691,
      "raan_deg": 284.8151,
      "arg_perigee_deg": 153.0972,
      "mean_anomaly_deg": 207.0914,
      "mean_motion_rev_day": 13.51006274
    },
    {
      "epoch": "2026-04-29T19:54:17.937792Z",
      "apogee_km": 1079.134685731905,
      "perigee_km": 1057.981603504104,
      "latitude_deg": -1.3477051947059267e-05,
      "longitude_deg": 128.34749965241795,
      "height_km": 1080.694319140246,
      "semi_major_axis_km": 7446.695144618005,
      "eccentricity": 0.0014203,
      "inclination_deg": 88.9691,
      "raan_deg": 284.7071,
      "arg_perigee_deg": 150.3904,
      "mean_anomaly_deg": 209.8054,
      "mean_motion_rev_day": 13.51006379
    }
  ]
}